<?xml version="1.0" encoding="ISO-8859-1"?><cdm xmlns:ndm="urn:ccsds:recommendation:navigation:schema:ndmxml" xmlns:xsi="http://www.w3.org/2001/XMLSchema-instance" id="CCSDS_CDM_VERS" version="1.0" xsi:noNamespaceSchemaLocation="http://sanaregistry.org/r/ndmxml/ndmxml-1.0-master.xsd"><header><COMMENT>CDM_ID:610528456</COMMENT><COMMENT>EVENT_ID:CA-24001A-90094A-202312021836</COMMENT><CREATION_DATE>2023-11-25T01:45:22.000</CREATION_DATE><ORIGINATOR>CSpOC</ORIGINATOR><MESSAGE_FOR>SAT_1</MESSAGE_FOR><MESSAGE_ID>000000001E_conj_000020923_2023336183714_329014440323</MESSAGE_ID></header><body><relativeMetadataData><TCA>2023-12-02T18:37:14.954</TCA><MISS_DISTANCE units="m">4131.966231711</MISS_DISTANCE><RELATIVE_SPEED units="m/s">725.3051013194379</RELATIVE_SPEED><relativeStateVector><RELATIVE_POSITION_R units="m">371.0</RELATIVE_POSITION_R><RELATIVE_POSITION_T units="m">4086.3</RELATIVE_POSITION_T><RELATIVE_POSITION_N units="m">487.5</RELATIVE_POSITION_N><RELATIVE_VELOCITY_R units="m/s">-0.8</RELATIVE_VELOCITY_R><RELATIVE_VELOCITY_T units="m/s">-85.9</RELATIVE_VELOCITY_T><RELATIVE_VELOCITY_N units="m/s">720.2</RELATIVE_VELOCITY_N></relativeStateVector><SCREEN_VOLUME_X units="m">0.0</SCREEN_VOLUME_X><SCREEN_VOLUME_Y units="m">0.0</SCREEN_VOLUME_Y><SCREEN_VOLUME_Z units="m">0.0</SCREEN_VOLUME_Z><COLLISION_PROBABILITY>0.0</COLLISION_PROBABILITY><COLLISION_PROBABILITY_METHOD/></relativeMetadataData><segment><metadata><OBJECT>OBJECT1</OBJECT><OBJECT_DESIGNATOR>00001</OBJECT_DESIGNATOR><CATALOG_NAME>SATCAT</CATALOG_NAME><OBJECT_NAME>SAT_1</OBJECT_NAME><INTERNATIONAL_DESIGNATOR>2024-001A</INTERNATIONAL_DESIGNATOR><OBJECT_TYPE>PAYLOAD</OBJECT_TYPE><OPERATOR_CONTACT_POSITION>https://www.space-track.org/expandedspacedata/query/class/organization/object/~~00001/orderby/ORG_NAME,INFO_ID/format/html/emptyresult/show/</OPERATOR_CONTACT_POSITION><OPERATOR_ORGANIZATION>SAT_1</OPERATOR_ORGANIZATION><OPERATOR_PHONE>https://www.space-track.org/expandedspacedata/query/class/organization/object/~~00001/orderby/ORG_NAME,INFO_ID/format/html/emptyresult/show/</OPERATOR_PHONE><OPERATOR_EMAIL>https://www.space-track.org/expandedspacedata/query/class/organization/object/~~00001/orderby/ORG_NAME,INFO_ID/format/html/emptyresult/show/</OPERATOR_EMAIL><EPHEMERIS_NAME>00001_SAT_1-7-WEST-A_3271100_oper_SDC_Unclassified.txt</EPHEMERIS_NAME><COVARIANCE_METHOD>CALCULATED</COVARIANCE_METHOD><MANEUVERABLE>N/A</MANEUVERABLE><REF_FRAME>ITRF</REF_FRAME><GRAVITY_MODEL>CUSTOM: 0D 0O</GRAVITY_MODEL><ATMOSPHERIC_MODEL>JBH09</ATMOSPHERIC_MODEL><N_BODY_PERTURBATIONS>NONE</N_BODY_PERTURBATIONS><SOLAR_RAD_PRESSURE>NO</SOLAR_RAD_PRESSURE><EARTH_TIDES>NO</EARTH_TIDES><INTRACK_THRUST>NO</INTRACK_THRUST></metadata><data><odParameters><RECOMMENDED_OD_SPAN units="d">0.0</RECOMMENDED_OD_SPAN><ACTUAL_OD_SPAN units="d">0.0</ACTUAL_OD_SPAN><OBS_AVAILABLE>0</OBS_AVAILABLE><OBS_USED>0</OBS_USED><RESIDUALS_ACCEPTED units="%">0.0</RESIDUALS_ACCEPTED><WEIGHTED_RMS>0.0</WEIGHTED_RMS></odParameters><additionalParameters><COMMENT>JAC_LAST_ACC_OB = N/A</COMMENT><COMMENT>Screened with = unknown state vector type.</COMMENT><AREA_PC units="m**2">47.6612</AREA_PC><AREA_DRG units="m**2">0.0</AREA_DRG><AREA_SRP units="m**2">0.0</AREA_SRP><MASS units="kg">0.0</MASS><CD_AREA_OVER_MASS units="m**2/kg">0.0</CD_AREA_OVER_MASS><CR_AREA_OVER_MASS units="m**2/kg">0.0</CR_AREA_OVER_MASS></additionalParameters><stateVector><X units="km">41841.221331000015</X><Y units="km">-5327.609656000001</Y><Z units="km">-18.463176000000008</Z><X_DOT units="km/s">0.0017029349999997975</X_DOT><Y_DOT units="km/s">-0.002317986000000019</Y_DOT><Z_DOT units="km/s">0.003993013000000003</Z_DOT></stateVector><covarianceMatrix><CR_R units="m**2">0.0</CR_R><CT_R units="m**2">0.0</CT_R><CT_T units="m**2">0.0</CT_T><CN_R units="m**2">0.0</CN_R><CN_T units="m**2">0.0</CN_T><CN_N units="m**2">0.0</CN_N><CRDOT_R units="m**2/s">0.0</CRDOT_R><CRDOT_T units="m**2/s">0.0</CRDOT_T><CRDOT_N units="m**2/s">0.0</CRDOT_N><CRDOT_RDOT units="m**2/s**2">0.0</CRDOT_RDOT><CTDOT_R units="m**2/s">0.0</CTDOT_R><CTDOT_T units="m**2/s">0.0</CTDOT_T><CTDOT_N units="m**2/s">0.0</CTDOT_N><CTDOT_RDOT units="m**2/s**2">0.0</CTDOT_RDOT><CTDOT_TDOT units="m**2/s**2">0.0</CTDOT_TDOT><CNDOT_R units="m**2/s">0.0</CNDOT_R><CNDOT_T units="m**2/s">0.0</CNDOT_T><CNDOT_N units="m**2/s">0.0</CNDOT_N><CNDOT_RDOT units="m**2/s**2">0.0</CNDOT_RDOT><CNDOT_TDOT units="m**2/s**2">0.0</CNDOT_TDOT><CNDOT_NDOT units="m**2/s**2">0.0</CNDOT_NDOT><CDRG_R units="m**3/kg">0.0</CDRG_R><CDRG_T units="m**3/kg">0.0</CDRG_T><CDRG_N units="m**3/kg">0.0</CDRG_N><CDRG_RDOT units="m**3/(kg*s)">0.0</CDRG_RDOT><CDRG_TDOT units="m**3/(kg*s)">0.0</CDRG_TDOT><CDRG_NDOT units="m**3/(kg*s)">0.0</CDRG_NDOT><CDRG_DRG units="m**4/kg**2">0.0</CDRG_DRG><CSRP_R units="m**3/kg">0.0</CSRP_R><CSRP_T units="m**3/kg">0.0</CSRP_T><CSRP_N units="m**3/kg">0.0</CSRP_N><CSRP_RDOT units="m**3/(kg*s)">0.0</CSRP_RDOT><CSRP_TDOT units="m**3/(kg*s)">0.0</CSRP_TDOT><CSRP_NDOT units="m**3/(kg*s)">0.0</CSRP_NDOT><CSRP_DRG units="m**4/kg**2">0.0</CSRP_DRG><CSRP_SRP units="m**4/kg**2">0.0</CSRP_SRP></covarianceMatrix></data></segment><segment><metadata><OBJECT>OBJECT2</OBJECT><OBJECT_DESIGNATOR>20923</OBJECT_DESIGNATOR><CATALOG_NAME>SATCAT</CATALOG_NAME><OBJECT_NAME>GORIZONT 21</OBJECT_NAME><INTERNATIONAL_DESIGNATOR>1990-094A</INTERNATIONAL_DESIGNATOR><OBJECT_TYPE>PAYLOAD</OBJECT_TYPE><OPERATOR_CONTACT_POSITION>https://www.space-track.org/expandedspacedata/query/class/organization/object/~~20923/orderby/ORG_NAME,INFO_ID/format/html/emptyresult/show/</OPERATOR_CONTACT_POSITION><OPERATOR_ORGANIZATION>- Whitelist-Show public CDMs</OPERATOR_ORGANIZATION><OPERATOR_PHONE>https://www.space-track.org/expandedspacedata/query/class/organization/object/~~20923/orderby/ORG_NAME,INFO_ID/format/html/emptyresult/show/</OPERATOR_PHONE><OPERATOR_EMAIL>https://www.space-track.org/expandedspacedata/query/class/organization/object/~~20923/orderby/ORG_NAME,INFO_ID/format/html/emptyresult/show/</OPERATOR_EMAIL><EPHEMERIS_NAME>NONE</EPHEMERIS_NAME><COVARIANCE_METHOD>CALCULATED</COVARIANCE_METHOD><MANEUVERABLE>N/A</MANEUVERABLE><REF_FRAME>ITRF</REF_FRAME><GRAVITY_MODEL>EGM-96: 8D 8O</GRAVITY_MODEL><ATMOSPHERIC_MODEL>NONE</ATMOSPHERIC_MODEL><N_BODY_PERTURBATIONS>MOON,SUN</N_BODY_PERTURBATIONS><SOLAR_RAD_PRESSURE>YES</SOLAR_RAD_PRESSURE><EARTH_TIDES>YES</EARTH_TIDES><INTRACK_THRUST>NO</INTRACK_THRUST></metadata><data><odParameters><TIME_LASTOB_START>2023-11-24T01:45:22.811</TIME_LASTOB_START><TIME_LASTOB_END>2023-11-25T01:45:22.811</TIME_LASTOB_END><RECOMMENDED_OD_SPAN units="d">27.93</RECOMMENDED_OD_SPAN><ACTUAL_OD_SPAN units="d">27.93</ACTUAL_OD_SPAN><OBS_AVAILABLE>377</OBS_AVAILABLE><OBS_USED>377</OBS_USED><RESIDUALS_ACCEPTED units="%">98.9</RESIDUALS_ACCEPTED><WEIGHTED_RMS>1.022</WEIGHTED_RMS></odParameters><additionalParameters><COMMENT>JAC_LAST_ACC_OB = N/A</COMMENT><COMMENT>Screened with = inertial state vector.</COMMENT><AREA_PC units="m**2">7.9423</AREA_PC><AREA_DRG units="m**2">0.0</AREA_DRG><AREA_SRP units="m**2">0.0</AREA_SRP><MASS units="kg">0.0</MASS><CD_AREA_OVER_MASS units="m**2/kg">0.0</CD_AREA_OVER_MASS><CR_AREA_OVER_MASS units="m**2/kg">0.00711812834</CR_AREA_OVER_MASS></additionalParameters><stateVector><X units="km">41842.10562000002</X><Y units="km">-5323.603647999998</Y><Z units="km">-17.97052600000002</Z><X_DOT units="km/s">-0.009454860000000008</X_DOT><Y_DOT units="km/s">-0.08841740999999995</Y_DOT><Z_DOT units="km/s">0.7240478110000005</Z_DOT></stateVector><covarianceMatrix><CR_R units="m**2">12963.68751067691</CR_R><CT_R units="m**2">-8333.748669022763</CT_R><CT_T units="m**2">1638364.484044654</CT_T><CN_R units="m**2">-132.7810341820959</CN_R><CN_T units="m**2">-1731.022077265544</CN_T><CN_N units="m**2">780.5113981183586</CN_N><CRDOT_R units="m**2/s">0.4358976416679952</CRDOT_R><CRDOT_T units="m**2/s">-119.3689119004011</CRDOT_T><CRDOT_N units="m**2/s">0.1297901646839489</CRDOT_N><CRDOT_RDOT units="m**2/s**2">0.00870194317940508</CRDOT_RDOT><CTDOT_R units="m**2/s">-0.9436253530358821</CTDOT_R><CTDOT_T units="m**2/s">-0.003341498092844562</CTDOT_T><CTDOT_N units="m**2/s">0.01030224816824937</CTDOT_N><CTDOT_RDOT units="m**2/s**2">1.278225735555495E-5</CTDOT_RDOT><CTDOT_TDOT units="m**2/s**2">6.891698848552479E-5</CTDOT_TDOT><CNDOT_R units="m**2/s">-0.006352561330338401</CNDOT_R><CNDOT_T units="m**2/s">-0.05405456348459277</CNDOT_T><CNDOT_N units="m**2/s">0.04972404719726692</CNDOT_N><CNDOT_RDOT units="m**2/s**2">4.098741757278452E-6</CNDOT_RDOT><CNDOT_TDOT units="m**2/s**2">4.839037020097623E-7</CNDOT_TDOT><CNDOT_NDOT units="m**2/s**2">6.970635555500405E-5</CNDOT_NDOT><CDRG_R units="m**3/kg">0.0</CDRG_R><CDRG_T units="m**3/kg">0.0</CDRG_T><CDRG_N units="m**3/kg">0.0</CDRG_N><CDRG_RDOT units="m**3/(kg*s)">0.0</CDRG_RDOT><CDRG_TDOT units="m**3/(kg*s)">0.0</CDRG_TDOT><CDRG_NDOT units="m**3/(kg*s)">0.0</CDRG_NDOT><CDRG_DRG units="m**4/kg**2">0.0</CDRG_DRG><CSRP_R units="m**3/kg">0.0</CSRP_R><CSRP_T units="m**3/kg">0.0</CSRP_T><CSRP_N units="m**3/kg">0.0</CSRP_N><CSRP_RDOT units="m**3/(kg*s)">0.0</CSRP_RDOT><CSRP_TDOT units="m**3/(kg*s)">0.0</CSRP_TDOT><CSRP_NDOT units="m**3/(kg*s)">0.0</CSRP_NDOT><CSRP_DRG units="m**4/kg**2">0.0</CSRP_DRG><CSRP_SRP units="m**4/kg**2">0.0</CSRP_SRP></covarianceMatrix></data></segment></body></cdm>